#aV2022  7 24  0  0  0.00000000     288 DD+AD WGS84 FIT  NGA
## 2220      0.00000000   300.00000000 59784 0.0000000000000
+   32     1  2  3  4  5  6  7  8  9 10 11 12 13 14 15 16 17
+         18 19 20 21 22 23 24 25 26 27 28 29 30 31 32  0  0
+          0  0  0  0  0  0  0  0  0  0  0  0  0  0  0  0  0
+          0  0  0  0  0  0  0  0  0  0  0  0  0  0  0  0  0
+          0  0  0  0  0  0  0  0  0  0  0  0  0  0  0  0  0
++         2  2  2  2  2  2  2  2  2  2  2  2  2  2  2  2  2
++         2  2  2  2  2  2  2  2  2  2  2  2  2  2  2  0  0
++         0  0  0  0  0  0  0  0  0  0  0  0  0  0  0  0  0
++         0  0  0  0  0  0  0  0  0  0  0  0  0  0  0  0  0
++         0  0  0  0  0  0  0  0  0  0  0  0  0  0  0  0  0
%c cc cc ccc ccc cccc cccc cccc cccc ccccc ccccc ccccc ccccc
%c cc cc ccc ccc cccc cccc cccc cccc ccccc ccccc ccccc ccccc
%f  0.0000000  0.000000000  0.00000000000  0.000000000000000
%f  0.0000000  0.000000000  0.00000000000  0.000000000000000
%i    0    0    0    0      0      0      0      0         0
%i    0    0    0    0      0      0      0      0         0
/*      NGA, ST. LOUIS,MO.                                  
/*   EPHEMERIS COMPUTED FROM 2 DAYS OF DATA                 
/*   EPOCHA v8 SMOOTHER                                     
/*   G2139 IERS2010 SATIGS SATAPC                           
*  2022  7 24 21 40  0.00000000
P  1 -13905.719661  22332.200338   1517.061900    315.016901                    
V  1   -808.056536  -3130.907889  32501.087551     -0.073128                    
P  2  17344.429208  -9169.099563 -17362.325592   -650.748755                    
V  2  -8092.771658  21827.420730 -18771.421170      0.008157                    
P  3 -15229.242669  12433.230335 -17923.470912   -315.713591                    
V  3 -22548.596959  -1001.006018  18699.100835     -0.095509                    
P  4  -6609.781417  16442.110866 -19745.829635   -141.875685                    
V  4 -13288.380163 -21351.855998 -13413.450390      0.047074                    
P  5  25033.742918  -6109.050471   6567.683601    -90.352705                    
V  5   8673.356827   2049.378222 -30210.302701     -0.014028                    
P  6  11631.441583   9019.130112 -22046.178453    398.447382                    
V  6 -13889.419831  24387.519820   2714.289770      0.152848                    
P  7  -2453.171520  23120.122214  12784.452625    317.980868                    
V  7 -10142.892333  12421.932386 -25722.637429     -0.016269                    
P  8 -12217.620491   8984.969935  21752.440295    -77.581611                    
V  8 -15068.516137 -23274.257265   1490.886432     -0.015505                    
P  9   3744.713964  22975.646107 -12827.862387   -315.640196                    
V  9 -10695.738095 -12411.249400 -25524.347310      0.039650                    
P 10 -16289.470371 -11684.396376  17721.184360   -503.707283                    
V 10  22031.540777  -1666.718725  19021.466837     -0.135580                    
P 11  18031.611635  -3737.950487 -19133.033584    -10.375185                    
V 11 -11753.015585  21299.094985 -15266.610302      0.001249                    
P 12  18111.083657 -10456.553133 -16578.484519   -251.569169                    
V 12  20457.858943   2754.288608  21050.499977     -0.059333                    
P 13  16232.490430   1486.371166  20848.783830    354.827565                    
V 13   9958.384938  24860.139948  -9278.282262      0.073599                    
P 14  14360.269432  13162.209784  18105.298886   -111.302728                    
V 14 -22996.905074   1209.177842  17261.591301      0.007698                    
P 15  11585.387688 -10556.454376  21010.080492    -42.791211                    
V 15  17559.591554  21559.470381   1433.353790      0.030283                    
P 16 -26737.571997   -869.203760   1498.891429   -517.154082                    
V 16  -2046.258205  -2345.493237 -31553.094108     -0.020114                    
P 17  13148.092217  22955.372292  -1557.772385    640.684787                    
V 17   -906.133653   3297.486762  32097.024108      0.044040                    
P 18   3267.771451 -23010.644381  12731.832682    103.259222                    
V 18   9936.378305 -12979.520130 -26106.496259     -0.116647                    
P 19  16600.241256  17798.326842 -11167.967617    188.097681                    
V 19   4198.457593  13149.203772  27595.467893      0.050274                    
P 20  25753.387153   -229.766670  -5973.102307    500.477358                    
V 20  -6934.602101   4708.571541 -30285.273293     -0.031420                    
P 21 -16747.756201  16643.309772  12042.586044    160.955287                    
V 21   3513.459291 -14427.416503  26889.185038     -0.001977                    
P 22 -17349.962369 -15708.430907 -12302.709744    297.997653                    
V 22  -5142.265830 -15555.873722  26054.051053      0.065169                    
P 23  -4982.019007 -14605.947680  21617.839495    -34.322589                    
V 23  27387.408597  -1635.010868   5092.762343     -0.015596                    
P 24  14447.196038 -21084.041223   6067.806393    188.100469                    
V 24    192.062076   9105.205717  30100.065520     -0.104173                    
P 25   4071.200494 -15329.049554 -21559.338794    353.004138                    
V 25  26764.205887   -102.369883   5463.363523      0.044025                    
P 26 -24880.575230  -4526.854145  -8712.231087    220.056985                    
V 26  10629.730499  -3814.309011 -28348.608429      0.020855                    
P 27 -17992.609547  -4880.321230  18852.287433    220.920816                    
V 27 -11601.784627 -21298.756184 -16019.598699     -0.001144                    
P 28  21325.195154  10160.777373  12411.657094    337.071682                    
V 28 -15158.391333   1056.372060  26489.947506      0.028225                    
P 29  -2063.650612 -23160.029197 -12814.952506   -536.602052                    
V 29   8921.778878  13629.028300 -26245.400488     -0.034608                    
P 30   6144.422129  17490.789652  19021.819818   -534.680267                    
V 30 -13538.608378  20058.010306 -14391.892302     -0.007560                    
P 31 -14001.944939  -6567.901145 -21742.142866   -187.035071                    
V 31  13814.302175 -23541.130844  -1338.685041     -0.014761                    
P 32 -16123.735678 -20811.146035  -4071.906364   -185.079449                    
V 32   -487.613515  -5952.467173  31024.205553     -0.101970                    
EOF
